1 45180U 20012C   22365.34675859  .00031709  00000-0  15738-2 0  9994
2 45180  53.0471 223.6520 0003400 141.2084 218.9154 15.17445605159482
1 45180U 20012C   22365.34675859  .00031709  00000-0  15738-2 0  9994
2 45180  53.0471 223.6520 0003400 141.2084 218.9154 15.17445605158830
1 45180U 20012C   23001.33468873  .00030328  00000-0  15036-2 0  9994
2 45180  53.0479 219.1391 0003411 143.2508 216.8720 15.17506565159637
1 45180U 20012C   23001.99328636  .00029882  00000-0  14801-2 0  9990
2 45180  53.0478 216.1315 0003270 143.9386 216.1829 15.17547233159082
1 45180U 20012C   23002.58600759  .00026622  00000-0  13195-2 0  9999
2 45180  53.0478 213.4239 0003240 145.0861 215.0346 15.17584688159824
1 45180U 20012C   23002.84943452  .00027302  00000-0  13520-2 0  9996
2 45180  53.0478 212.2212 0003185 145.2251 214.8952 15.17601735159862
1 45180U 20012C   23003.57384572  .00026479  00000-0  13103-2 0  9990
2 45180  53.0479 208.9113 0003130 147.6035 212.5152 15.17644195159977
1 45180U 20012C   23003.57384572  .00026479  00000-0  13103-2 0  9990
2 45180  53.0479 208.9113 0003130 147.6035 212.5152 15.17644195159326
1 45180U 20012C   23004.49579133  .00037964  00000-0  18653-2 0  9997
2 45180  53.0479 204.6999 0002965 149.8947 210.2218 15.17712509160114
1 45180U 20012C   23004.49579133  .00037964  00000-0  18653-2 0  9997
2 45180  53.0479 204.6999 0002965 149.8947 210.2218 15.17712509159460
1 45180U 20012C   23004.82504477  .00042769  00000-0  20960-2 0  9996
2 45180  53.0479 203.1955 0002935 150.4139 209.7021 15.17746898160166
1 45180U 20012C   23004.82504477  .00042769  00000-0  20960-2 0  9996
2 45180  53.0479 203.1955 0002935 150.4139 209.7021 15.17746898159513
1 45180U 20012C   23005.81276848  .00034367  00000-0  16853-2 0  9995
2 45180  53.0480 198.6821 0002803 152.9107 207.2033 15.17827598160314
1 45180U 20012C   23006.53706289  .00038422  00000-0  18776-2 0  9994
2 45180  53.0481 195.3718 0002691 156.3428 203.7690 15.17896547159771
1 45180U 20012C   23006.93212044  .00039438  00000-0  19247-2 0  9991
2 45180  53.0481 193.5663 0002620 157.2134 202.8977 15.17930397160486
1 45180U 20012C   23007.78804754  .00044686  00000-0  21724-2 0  9994
2 45180  53.0484 189.6540 0002454 160.1391 199.9699 15.18008232159965
1 45180U 20012C   23007.91972484  .00045505  00000-0  22109-2 0  9994
2 45180  53.0486 189.0524 0002450 160.2007 199.9083 15.18020634160637
1 45180U 20012C   23008.51226086  .00039553  00000-0  19227-2 0  9994
2 45180  53.0488 186.3438 0002364 162.3490 197.7586 15.18067891160726
1 45180U 20012C   23008.77560390  .00042543  00000-0  20646-2 0  9991
2 45180  53.0489 185.1401 0002316 163.1559 196.9513 15.18091713160761
1 45180U 20012C   23009.56560764  .00045637  00000-0  22080-2 0  9995
2 45180  53.0497 181.5281 0002144 165.1408 194.9649 15.18166075160885
1 45180U 20012C   23009.56560764  .00045637  00000-0  22080-2 0  9995
2 45180  53.0497 181.5281 0002144 165.1408 194.9649 15.18166075160234
1 45180U 20012C   23010.48723288  .00044603  00000-0  21536-2 0  9997
2 45180  53.0502 177.3139 0001910 168.5333 191.5705 15.18247877161024
1 45180U 20012C   23010.75054383  .00047836  00000-0  23057-2 0  9991
2 45180  53.0500 176.1103 0001899 169.4149 190.6885 15.18275646161069
1 45180U 20012C   23010.75054383  .00047836  00000-0  23057-2 0  9991
2 45180  53.0500 176.1103 0001899 169.4149 190.6885 15.18275646160417
1 45180U 20012C   23011.14550110  .00054554  00000-0  26214-2 0  9997
2 45180  53.0494 174.3039 0001804 169.4213 190.6819 15.18322841161121
1 45180U 20012C   23011.14550110  .00054554  00000-0  26214-2 0  9997
2 45180  53.0494 174.3039 0001804 169.4213 190.6819 15.18322841160478
1 45180U 20012C   23011.73791559  .00057864  00000-0  27729-2 0  9995
2 45180  53.0471 171.5936 0001625 168.1188 191.9844 15.18389967161213
1 45180U 20012C   23012.79103479  .00051156  00000-0  24475-2 0  9993
2 45180  53.0483 166.7785 0001475 179.0743 181.0254 15.18503151161370
1 45180U 20012C   23012.79103479  .00051156  00000-0  24475-2 0  9993
2 45180  53.0483 166.7785 0001475 179.0743 181.0254 15.18503151160728
1 45180U 20012C   23013.44919507  .00054557  00000-0  26029-2 0  9998
2 45180  53.0485 163.7689 0001327 180.9174 179.1817 15.18570876161479
1 45180U 20012C   23013.71245042  .00052768  00000-0  25167-2 0  9998
2 45180  53.0489 162.5641 0001318 184.8380 175.2602 15.18598283161516
1 45180U 20012C   23014.10732599  .00056112  00000-0  26711-2 0  9993
2 45180  53.0485 160.7579 0001201 187.8735 172.2241 15.18635651160921
1 45180U 20012C   23015.55510850  .00052000  00000-0  24666-2 0  9996
2 45180  53.0482 154.1335 0000941 194.3715 165.7253 15.18794016161142
1 45180U 20012C   23015.62091290  .00052828  00000-0  25047-2 0  9998
2 45180  53.0475 153.8320 0000921 194.2997 165.7972 15.18803224161806
1 45180U 20012C   23015.68671698  .00052615  00000-0  24941-2 0  9996
2 45180  53.0474 153.5307 0000917 195.5730 164.5236 15.18811825161818
1 45180U 20012C   23016.08153512  .00065452  00000-0  30890-2 0  9994
2 45180  53.0469 151.7241 0000763 198.3149 161.7818 15.18861954161221
1 45180U 20012C   23016.54214039  .00052554  00000-0  24840-2 0  9994
2 45180  53.0469 149.6157 0000683 198.6892 161.4078 15.18913026161944
1 45180U 20012C   23016.87113634  .00048196  00000-0  22788-2 0  9995
2 45180  53.0460 148.1094 0000692 207.6448 152.4510 15.18940502161992
1 45180U 20012C   23016.87113634  .00048196  00000-0  22788-2 0  9995
2 45180  53.0460 148.1094 0000692 207.6448 152.4510 15.18940502161341
1 45180U 20012C   23017.39751872  .00039575  00000-0  18741-2 0  9990
2 45180  53.0456 145.7001 0000548 218.4409 141.6546 15.18977093162079
1 45180U 20012C   23017.39751872  .00039575  00000-0  18741-2 0  9990
2 45180  53.0456 145.7001 0000548 218.4409 141.6546 15.18977093161427
1 45180U 20012C   23018.58182779  .00048670  00000-0  22919-2 0  9994
2 45180  53.0453 140.2776 0000445 234.5213 125.5740 15.19076123162255
1 45180U 20012C   23018.58182779  .00048670  00000-0  22919-2 0  9994
2 45180  53.0453 140.2776 0000445 234.5213 125.5740 15.19076123161603
1 45180U 20012C   23018.64762045  .00048701  00000-0  22930-2 0  9999
2 45180  53.0454 139.9764 0000402 232.6665 127.4293 15.19081839162266
1 45180U 20012C   23019.30553204  .00037343  00000-0  17618-2 0  9995
2 45180  53.0454 136.9639 0000343 251.1854 108.9103 15.19133543162369
1 45180U 20012C   23019.30553204  .00037343  00000-0  17618-2 0  9995
2 45180  53.0454 136.9639 0000343 251.1854 108.9103 15.19133543161717
1 45180U 20012C   23019.56868906  .00046248  00000-0  21738-2 0  9993
2 45180  53.0452 135.7590 0000296 263.9482  96.1479 15.19164068161757
1 45180U 20012C   23020.48971241  .00037849  00000-0  17803-2 0  9998
2 45180  53.0458 131.5422 0000300 319.0640  41.0332 15.19232249162548
1 45180U 20012C   23020.48971241  .00037849  00000-0  17803-2 0  9998
2 45180  53.0458 131.5422 0000300 319.0640  41.0332 15.19232249161895
1 45180U 20012C   23021.60804182  .00043789  00000-0  20505-2 0  9995
2 45180  53.0462 126.4210 0000538 348.4841  11.6141 15.19319693162060
1 45180U 20012C   23022.52896965  .00037965  00000-0  17776-2 0  9992
2 45180  53.0464 122.2023 0000691 356.3391   3.7599 15.19389470162201
1 45180U 20012C   23023.51563338  .00032621  00000-0  15277-2 0  9995
2 45180  53.0459 117.6821 0000902   2.8068 357.2931 15.19455189162352
1 45180U 20012C   23025.48883760  .00026814  00000-0  12550-2 0  9995
2 45180  53.0451 108.6406 0001299  10.0267 350.0753 15.19575303163305
1 45180U 20012C   23025.48883760  .00026814  00000-0  12550-2 0  9995
2 45180  53.0451 108.6406 0001299  10.0267 350.0753 15.19575303162652
1 45180U 20012C   23026.47538369  .00027851  00000-0  13007-2 0  9997
2 45180  53.0455 104.1201 0001532  16.3304 343.7740 15.19631388163451
1 45180U 20012C   23026.93575968  .00027923  00000-0  13030-2 0  9990
2 45180  53.0457 102.0098 0001602  17.1555 342.9494 15.19657034162877
1 45180U 20012C   23027.19882851  .00023431  00000-0  10961-2 0  9991
2 45180  53.0458 100.8041 0001627  18.8299 341.2755 15.19668221163561
1 45180U 20012C   23028.44837341  .00023625  00000-0  11030-2 0  9997
2 45180  53.0465  95.0776 0001903  22.8910 337.2169 15.19732252163752
1 45180U 20012C   23028.44837341  .00023625  00000-0  11030-2 0  9997
2 45180  53.0465  95.0776 0001903  22.8910 337.2169 15.19732252163101
1 45180U 20012C   23028.90871956  .00020035  00000-0  93757-3 0  9997
2 45180  53.0464  92.9670 0001881  22.5832 337.5246 15.19750832163826
1 45180U 20012C   23029.63210955  .00019615  00000-0  91751-3 0  9998
2 45180  53.0468  89.6515 0002020  25.1819 334.9274 15.19780853163289
1 45180U 20012C   23029.89515705  .00018444  00000-0  86351-3 0  9996
2 45180  53.0469  88.4457 0002064  26.0717 334.0381 15.19790643163971
1 45180U 20012C   23030.42124686  .00017906  00000-0  83833-3 0  9995
2 45180  53.0473  86.0346 0002194  28.1402 331.9711 15.19810692164055
1 45180U 20012C   23030.88156930  .00017808  00000-0  83337-3 0  9992
2 45180  53.0476  83.9243 0002213  29.6354 330.4766 15.19828992164128
1 45180U 20012C   23031.14460851  .00018206  00000-0  85140-3 0  9999
2 45180  53.0475  82.7183 0002228  30.4149 329.6975 15.19838724164165
1 45180U 20012C   23031.14460851  .00018206  00000-0  85140-3 0  9999
2 45180  53.0475  82.7183 0002228  30.4149 329.6975 15.19838724163513
